*******************************************************************************
Ephemeris / WWW_USER Tue Mar 11 05:31:47 2025 Pasadena, USA      / Horizons    
*******************************************************************************
Target body name: (2018 VS1)                      {source: JPL#4}
Center body name: Earth (399)                     {source: DE441}
Center-site name: Gemini South Obs., Cerro Pachon
*******************************************************************************
Start time      : A.D. 2018-Sep-07 22:39:00.0000 UT      
Stop  time      : A.D. 2018-Sep-08 10:41:00.0000 UT      
Step-size       : 1 minutes
*******************************************************************************
Target pole/equ : undefined
Target radii    : undefined                                                    
Center geodetic : 289.2634, -30.2406227, 2.71233  {E-lon(deg),Lat(deg),Alt(km)}
Center cylindric: 289.2634,5517.21435,-3194.81213 {E-lon(deg),Dxy(km),Dz(km)}
Center pole/equ : ITRF93                          {East-longitude positive}
Center radii    : 6378.137, 6378.137, 6356.752 km {Equator_a, b, pole_c}       
Target primary  : Sun
Vis. interferer : MOON (R_eq= 1737.400) km        {source: DE441}
Rel. light bend : Sun                             {source: DE441}
Rel. lght bnd GM: 1.3271E+11 km^3/s^2                                          
Small-body perts: Yes                             {source: SB441-N16}
Atmos refraction: NO (AIRLESS)
RA format       : HMS
Time format     : CAL 
Calendar mode   : Mixed Julian/Gregorian
RTS-only print  : NO       
EOP file        : eop.250310.p250606                                           
EOP coverage    : DATA-BASED 1962-JAN-20 TO 2025-MAR-10. PREDICTS-> 2025-JUN-05
Units conversion: 1 au= 149597870.700 km, c= 299792.458 km/s, 1 day= 86400.0 s 
Table cut-offs 1: Elevation (-90.0deg=NO ),Airmass (>38.000=NO), Daylight (YES)
Table cut-offs 2: Solar elongation (  0.0,180.0=NO ),Local Hour Angle( 0.0=NO )
Table cut-offs 3: RA/DEC angular rate (     0.0=NO )                           
*******************************************************************************
Initial IAU76/J2000 heliocentric ecliptic osculating elements (au, days, deg.):
  EPOCH=  2458427.5 ! 2018-Nov-05.00 (TDB)         Residual RMS= .21634        
   EC= .3907275528854954   QR= .7806320880190512   TP= 2458486.1030618688      
   OM= 55.95483604725189   W=  67.17004921097404   IN= 3.601110299269385       
  Equivalent ICRF heliocentric cartesian coordinates (au, au/d):
   X= 7.595935200506908E-01  Y= 6.354459268576240E-01  Z= 2.586666727482118E-01
  VX=-1.643099138746886E-02 VY= 7.530892270769961E-03 VZ= 4.533522122669557E-03
Asteroid physical parameters (km, seconds, rotational period in hours):        
   GM= n.a.                RAD= n.a.               ROTPER= n.a.                
   H= 26.6                 G= .150                 B-V= n.a.                   
                           ALBEDO= n.a.            STYP= n.a.                  
*******************************************************************************
 Date__(UT)__HR:MN     R.A._________(ICRF)_________DEC
******************************************************
$$SOE
 2018-Sep-07 22:39 C   02 16 02.948221 +04 42 09.33199
 2018-Sep-07 22:40 C   02 16 02.998705 +04 42 09.35715
 2018-Sep-07 22:41 C   02 16 03.049175 +04 42 09.38232
 2018-Sep-07 22:42 C   02 16 03.099631 +04 42 09.40751
 2018-Sep-07 22:43 C   02 16 03.150074 +04 42 09.43271
 2018-Sep-07 22:44 C   02 16 03.200503 +04 42 09.45792
 2018-Sep-07 22:45 C   02 16 03.250918 +04 42 09.48315
 2018-Sep-07 22:46 C   02 16 03.301319 +04 42 09.50839
 2018-Sep-07 22:47 C   02 16 03.351705 +04 42 09.53364
 2018-Sep-07 22:48 C   02 16 03.402078 +04 42 09.55890
 2018-Sep-07 22:49 C   02 16 03.452437 +04 42 09.58417
 2018-Sep-07 22:50 C   02 16 03.502781 +04 42 09.60946
 2018-Sep-07 22:51 C   02 16 03.553111 +04 42 09.63476
 2018-Sep-07 22:52 C   02 16 03.603426 +04 42 09.66007
 2018-Sep-07 22:53 C   02 16 03.653727 +04 42 09.68540
 2018-Sep-07 22:54 C   02 16 03.704014 +04 42 09.71073
 2018-Sep-07 22:55 C   02 16 03.754286 +04 42 09.73608
 2018-Sep-07 22:56 N   02 16 03.804543 +04 42 09.76144
 2018-Sep-07 22:57 N   02 16 03.854786 +04 42 09.78681
 2018-Sep-07 22:58 N   02 16 03.905013 +04 42 09.81220
 2018-Sep-07 22:59 N   02 16 03.955226 +04 42 09.83759
 2018-Sep-07 23:00 N   02 16 04.005425 +04 42 09.86300
 2018-Sep-07 23:01 N   02 16 04.055608 +04 42 09.88842
 2018-Sep-07 23:02 N   02 16 04.105776 +04 42 09.91385
 2018-Sep-07 23:03 N   02 16 04.155929 +04 42 09.93929
 2018-Sep-07 23:04 N   02 16 04.206067 +04 42 09.96474
 2018-Sep-07 23:05 N   02 16 04.256190 +04 42 09.99020
 2018-Sep-07 23:06 N   02 16 04.306298 +04 42 10.01568
 2018-Sep-07 23:07 N   02 16 04.356390 +04 42 10.04116
 2018-Sep-07 23:08 N   02 16 04.406467 +04 42 10.06666
 2018-Sep-07 23:09 N   02 16 04.456529 +04 42 10.09216
 2018-Sep-07 23:10 N   02 16 04.506575 +04 42 10.11768
 2018-Sep-07 23:11 N   02 16 04.556605 +04 42 10.14321
 2018-Sep-07 23:12 N   02 16 04.606620 +04 42 10.16875
 2018-Sep-07 23:13 N   02 16 04.656620 +04 42 10.19430
 2018-Sep-07 23:14 N   02 16 04.706603 +04 42 10.21986
 2018-Sep-07 23:15 N   02 16 04.756571 +04 42 10.24543
 2018-Sep-07 23:16 N   02 16 04.806523 +04 42 10.27101
 2018-Sep-07 23:17 N   02 16 04.856460 +04 42 10.29660
 2018-Sep-07 23:18 N   02 16 04.906380 +04 42 10.32220
 2018-Sep-07 23:19 N   02 16 04.956284 +04 42 10.34781
 2018-Sep-07 23:20 N   02 16 05.006173 +04 42 10.37343
 2018-Sep-07 23:21 N   02 16 05.056045 +04 42 10.39906
 2018-Sep-07 23:22 N   02 16 05.105901 +04 42 10.42470
 2018-Sep-07 23:23 A   02 16 05.155741 +04 42 10.45035
 2018-Sep-07 23:24 A   02 16 05.205564 +04 42 10.47601
 2018-Sep-07 23:25 A   02 16 05.255372 +04 42 10.50168
 2018-Sep-07 23:26 A   02 16 05.305163 +04 42 10.52736
 2018-Sep-07 23:27 A   02 16 05.354937 +04 42 10.55304
 2018-Sep-07 23:28 A   02 16 05.404695 +04 42 10.57874
 2018-Sep-07 23:29 A   02 16 05.454437 +04 42 10.60445
 2018-Sep-07 23:30 A   02 16 05.504162 +04 42 10.63016
 2018-Sep-07 23:31 A   02 16 05.553871 +04 42 10.65588
 2018-Sep-07 23:32 A   02 16 05.603562 +04 42 10.68162
 2018-Sep-07 23:33 A   02 16 05.653237 +04 42 10.70736
 2018-Sep-07 23:34 A   02 16 05.702896 +04 42 10.73311
 2018-Sep-07 23:35 A   02 16 05.752537 +04 42 10.75887
 2018-Sep-07 23:36 A   02 16 05.802162 +04 42 10.78463
 2018-Sep-07 23:37 A   02 16 05.851770 +04 42 10.81041
 2018-Sep-07 23:38 A   02 16 05.901360 +04 42 10.83619
 2018-Sep-07 23:39 A   02 16 05.950934 +04 42 10.86198
 2018-Sep-07 23:40 A   02 16 06.000491 +04 42 10.88778
 2018-Sep-07 23:41 A   02 16 06.050030 +04 42 10.91359
 2018-Sep-07 23:42 A   02 16 06.099553 +04 42 10.93941
 2018-Sep-07 23:43 A   02 16 06.149058 +04 42 10.96523
 2018-Sep-07 23:44 A   02 16 06.198546 +04 42 10.99106
 2018-Sep-07 23:45 A   02 16 06.248017 +04 42 11.01690
 2018-Sep-07 23:46 A   02 16 06.297470 +04 42 11.04275
 2018-Sep-07 23:47 A   02 16 06.346906 +04 42 11.06861
 2018-Sep-07 23:48 A   02 16 06.396324 +04 42 11.09447
 2018-Sep-07 23:49 A   02 16 06.445725 +04 42 11.12034
 2018-Sep-07 23:50 A   02 16 06.495109 +04 42 11.14621
 2018-Sep-07 23:51     02 16 06.544475 +04 42 11.17210
 2018-Sep-07 23:52     02 16 06.593823 +04 42 11.19799
 2018-Sep-07 23:53     02 16 06.643153 +04 42 11.22388
 2018-Sep-07 23:54     02 16 06.692466 +04 42 11.24979
 2018-Sep-07 23:55     02 16 06.741761 +04 42 11.27570
 2018-Sep-07 23:56     02 16 06.791039 +04 42 11.30162
 2018-Sep-07 23:57     02 16 06.840298 +04 42 11.32754
 2018-Sep-07 23:58     02 16 06.889540 +04 42 11.35347
 2018-Sep-07 23:59     02 16 06.938764 +04 42 11.37941
 2018-Sep-08 00:00     02 16 06.987969 +04 42 11.40535
 2018-Sep-08 00:01     02 16 07.037157 +04 42 11.43130
 2018-Sep-08 00:02     02 16 07.086327 +04 42 11.45726
 2018-Sep-08 00:03     02 16 07.135478 +04 42 11.48322
 2018-Sep-08 00:04     02 16 07.184612 +04 42 11.50919
 2018-Sep-08 00:05     02 16 07.233727 +04 42 11.53516
 2018-Sep-08 00:06     02 16 07.282824 +04 42 11.56114
 2018-Sep-08 00:07     02 16 07.331903 +04 42 11.58712
 2018-Sep-08 00:08     02 16 07.380963 +04 42 11.61311
 2018-Sep-08 00:09     02 16 07.430005 +04 42 11.63911
 2018-Sep-08 00:10     02 16 07.479029 +04 42 11.66511
 2018-Sep-08 00:11     02 16 07.528035 +04 42 11.69111
 2018-Sep-08 00:12     02 16 07.577022 +04 42 11.71712
 2018-Sep-08 00:13     02 16 07.625990 +04 42 11.74314
 2018-Sep-08 00:14     02 16 07.674940 +04 42 11.76916
 2018-Sep-08 00:15     02 16 07.723871 +04 42 11.79519
 2018-Sep-08 00:16     02 16 07.772784 +04 42 11.82122
 2018-Sep-08 00:17     02 16 07.821678 +04 42 11.84725
 2018-Sep-08 00:18     02 16 07.870554 +04 42 11.87329
 2018-Sep-08 00:19     02 16 07.919411 +04 42 11.89933
 2018-Sep-08 00:20     02 16 07.968249 +04 42 11.92538
 2018-Sep-08 00:21     02 16 08.017068 +04 42 11.95143
 2018-Sep-08 00:22     02 16 08.065868 +04 42 11.97749
 2018-Sep-08 00:23     02 16 08.114650 +04 42 12.00355
 2018-Sep-08 00:24     02 16 08.163413 +04 42 12.02962
 2018-Sep-08 00:25     02 16 08.212156 +04 42 12.05568
 2018-Sep-08 00:26     02 16 08.260881 +04 42 12.08176
 2018-Sep-08 00:27     02 16 08.309587 +04 42 12.10783
 2018-Sep-08 00:28     02 16 08.358274 +04 42 12.13391
 2018-Sep-08 00:29     02 16 08.406942 +04 42 12.15999
 2018-Sep-08 00:30     02 16 08.455591 +04 42 12.18608
 2018-Sep-08 00:31     02 16 08.504220 +04 42 12.21217
 2018-Sep-08 00:32     02 16 08.552831 +04 42 12.23826
 2018-Sep-08 00:33     02 16 08.601422 +04 42 12.26435
 2018-Sep-08 00:34     02 16 08.649994 +04 42 12.29045
 2018-Sep-08 00:35     02 16 08.698547 +04 42 12.31655
 2018-Sep-08 00:36     02 16 08.747081 +04 42 12.34265
 2018-Sep-08 00:37     02 16 08.795595 +04 42 12.36876
 2018-Sep-08 00:38     02 16 08.844090 +04 42 12.39487
 2018-Sep-08 00:39     02 16 08.892566 +04 42 12.42098
 2018-Sep-08 00:40     02 16 08.941023 +04 42 12.44709
 2018-Sep-08 00:41     02 16 08.989459 +04 42 12.47321
